{"type": "FeatureCollection", "features": [ {"type": "Feature", "properties": {"norad_id": 37216, "name": "COSMO-SKYMED 4", "group": "resource", "lat": -52.72343857786528, "lon": -170.1222228785685, "alt_km": 630.1608364465537, "timestamp": "2025-12-24T05:51:19.262460+00:00", "meta": {"OBJECT_NAME": "COSMO-SKYMED 4", "OBJECT_ID": "2010-060A", "EPOCH": "2025-12-23T23:36:54.404064", "MEAN_MOTION": 14.82156925, "ECCENTRICITY": 0.00013548, "INCLINATION": 97.8801, "RA_OF_ASC_NODE": 179.1377, "ARG_OF_PERICENTER": 80.3932, "MEAN_ANOMALY": 279.7434, "EPHEMERIS_TYPE": 0, "CLASSIFICATION_TYPE": "U", "NORAD_CAT_ID": 37216, "ELEMENT_SET_NO": 999, "REV_AT_EPOCH": 81861, "BSTAR": 6.1366552e-05, "MEAN_MOTION_DOT": 4.36e-06, "MEAN_MOTION_DDOT": 0}, "tle": {"line1": "1 37216U 10060A   25357.98396301  .00000436  00000+0  61367-4 0  9996", "line2": "2 37216  97.8801 179.1377 0001354  80.3932 279.7434 14.82156925818610"}}, "geometry": {"type": "Point", "coordinates": [-170.1222228785685, -52.72343857786528]}}, {"type": "Feature", "properties": {"norad_id": 37387, "name": "RESOURCESAT-2", "group": "resource", "lat": -70.06740301552969, "lon": 86.98773688568718, "alt_km": 826.6860282422804, "timestamp": "2025-12-24T05:51:19.262470+00:00", "meta": {"OBJECT_NAME": "RESOURCESAT-2", "OBJECT_ID": "2011-015A", "EPOCH": "2025-12-23T21:44:51.192384", "MEAN_MOTION": 14.21601466, "ECCENTRICITY": 0.00058793, "INCLINATION": 98.7861, "RA_OF_ASC_NODE": 61.4071, "ARG_OF_PERICENTER": 12.1346, "MEAN_ANOMALY": 347.9972, "EPHEMERIS_TYPE": 0, "CLASSIFICATION_TYPE": "U", "NORAD_CAT_ID": 37387, "ELEMENT_SET_NO": 999, "REV_AT_EPOCH": 76127, "BSTAR": 8.2504984e-05, "MEAN_MOTION_DOT": 1.36e-06, "MEAN_MOTION_DDOT": 0}, "tle": {"line1": "1 37387U 11015A   25357.90614806  .00000136  00000+0  82505-4 0  9995", "line2": "2 37387  98.7861  61.4071 0005879  12.1346 347.9972 14.21601466761279"}}, "geometry": {"type": "Point", "coordinates": [86.98773688568718, -70.06740301552969]}}, {"type": "Feature", "properties": {"norad_id": 37781, "name": "HAIYANG-2A", "group": "resource", "lat": 7.4278156050273685, "lon": -2.228224494632334, "alt_km": 969.2787493719807, "timestamp": "2025-12-24T05:51:19.262482+00:00", "meta": {"OBJECT_NAME": "HAIYANG-2A", "OBJECT_ID": "2011-043A", "EPOCH": "2025-12-23T22:51:10.272672", "MEAN_MOTION": 13.78836029, "ECCENTRICITY": 0.00015837, "INCLINATION": 99.3374, "RA_OF_ASC_NODE": 358.7136, "ARG_OF_PERICENTER": 69.6622, "MEAN_ANOMALY": 290.47, "EPHEMERIS_TYPE": 0, "CLASSIFICATION_TYPE": "U", "NORAD_CAT_ID": 37781, "ELEMENT_SET_NO": 999, "REV_AT_EPOCH": 72253, "BSTAR": 3.4624904e-05, "MEAN_MOTION_DOT": -9e-08, "MEAN_MOTION_DDOT": 0}, "tle": {"line1": "1 37781U 11043A   25357.95220223 -.00000009  00000+0  34625-4 0  9995", "line2": "2 37781  99.3374 358.7136 0001583  69.6622 290.4700 13.78836029722532"}}, "geometry": {"type": "Point", "coordinates": [-2.228224494632334, 7.4278156050273685]}}, {"type": "Feature", "properties": {"norad_id": 37791, "name": "RASAT", "group": "resource", "lat": -27.38887600236497, "lon": -96.881739404821, "alt_km": 688.5389365078254, "timestamp": "2025-12-24T05:51:19.262496+00:00", "meta": {"OBJECT_NAME": "RASAT", "OBJECT_ID": "2011-044D", "EPOCH": "2025-12-23T22:52:17.510880", "MEAN_MOTION": 14.67923152, "ECCENTRICITY": 0.0021381, "INCLINATION": 98.0647, "RA_OF_ASC_NODE": 87.0444, "ARG_OF_PERICENTER": 31.1681, "MEAN_ANOMALY": 79.5604, "EPHEMERIS_TYPE": 0, "CLASSIFICATION_TYPE": "U", "NORAD_CAT_ID": 37791, "ELEMENT_SET_NO": 999, "REV_AT_EPOCH": 76747, "BSTAR": 7.2747574e-05, "MEAN_MOTION_DOT": 3.68e-06, "MEAN_MOTION_DDOT": 0}, "tle": {"line1": "1 37791U 11044D   25357.95298045  .00000368  00000+0  72748-4 0  9999", "line2": "2 37791  98.0647  87.0444 0021381  31.1681  79.5604 14.67923152767477"}}, "geometry": {"type": "Point", "coordinates": [-96.881739404821, -27.38887600236497]}}, {"type": "Feature", "properties": {"norad_id": 37841, "name": "SRMSAT", "group": "resource", "lat": -7.039716295624369, "lon": 18.451450602504714, "alt_km": 854.2847044515584, "timestamp": "2025-12-24T05:51:19.262506+00:00", "meta": {"OBJECT_NAME": "SRMSAT", "OBJECT_ID": "2011-058D", "EPOCH": "2025-12-23T20:30:47.361312", "MEAN_MOTION": 14.11515025, "ECCENTRICITY": 0.00119943, "INCLINATION": 19.973, "RA_OF_ASC_NODE": 40.682, "ARG_OF_PERICENTER": 75.0703, "MEAN_ANOMALY": 81.788, "EPHEMERIS_TYPE": 0, "CLASSIFICATION_TYPE": "U", "NORAD_CAT_ID": 37841, "ELEMENT_SET_NO": 999, "REV_AT_EPOCH": 73301, "BSTAR": 8.1720318e-05, "MEAN_MOTION_DOT": 4.15e-06, "MEAN_MOTION_DDOT": 0}, "tle": {"line1": "1 37841U 11058D   25357.85471483  .00000415  00000+0  81720-4 0  9991", "line2": "2 37841  19.9730  40.6820 0011994  75.0703  81.7880 14.11515025733011"}}, "geometry": {"type": "Point", "coordinates": [18.451450602504714, -7.039716295624369]}}, {"type": "Feature", "properties": {"norad_id": 38012, "name": "PLEIADES 1A", "group": "resource", "lat": -23.78261983113489, "lon": 74.46961420880086, "alt_km": 703.4204334640935, "timestamp": "2025-12-24T05:51:19.262516+00:00", "meta": {"OBJECT_NAME": "PLEIADES 1A", "OBJECT_ID": "2011-076F", "EPOCH": "2025-12-24T00:09:57.345408", "MEAN_MOTION": 14.58570647, "ECCENTRICITY": 0.00011186, "INCLINATION": 98.1811, "RA_OF_ASC_NODE": 70.6014, "ARG_OF_PERICENTER": 76.4042, "MEAN_ANOMALY": 95.6541, "EPHEMERIS_TYPE": 0, "CLASSIFICATION_TYPE": "U", "NORAD_CAT_ID": 38012, "ELEMENT_SET_NO": 999, "REV_AT_EPOCH": 74645, "BSTAR": 7.2951215e-05, "MEAN_MOTION_DOT": 2.94e-06, "MEAN_MOTION_DDOT": 0}, "tle": {"line1": "1 38012U 11076F   25358.00691372  .00000294  00000+0  72951-4 0  9992", "line2": "2 38012  98.1811  70.6014 0001118  76.4042  95.6541 14.58570647746459"}}, "geometry": {"type": "Point", "coordinates": [74.46961420880086, -23.78261983113489]}}, {"type": "Feature", "properties": {"norad_id": 38038, "name": "ZIYUAN 1-02C (ZY 1-02C)", "group": "resource", "lat": 64.33468911272517, "lon": -97.97469758667299, "alt_km": 753.372640676499, "timestamp": "2025-12-24T05:51:19.262526+00:00", "meta": {"OBJECT_NAME": "ZIYUAN 1-02C (ZY 1-02C)", "OBJECT_ID": "2011-079A", "EPOCH": "2025-12-23T23:26:48.779808", "MEAN_MOTION": 14.38023962, "ECCENTRICITY": 0.00075494, "INCLINATION": 98.4319, "RA_OF_ASC_NODE": 63.783, "ARG_OF_PERICENTER": 109.2197, "MEAN_ANOMALY": 63.5241, "EPHEMERIS_TYPE": 0, "CLASSIFICATION_TYPE": "U", "NORAD_CAT_ID": 38038, "ELEMENT_SET_NO": 999, "REV_AT_EPOCH": 73402, "BSTAR": 0.00018223289, "MEAN_MOTION_DOT": 5.08e-06, "MEAN_MOTION_DDOT": 0}, "tle": {"line1": "1 38038U 11079A   25357.97695347  .00000508  00000+0  18223-3 0  9993", "line2": "2 38038  98.4319  63.7830 0007549 109.2197  63.5241 14.38023962734024"}}, "geometry": {"type": "Point", "coordinates": [-97.97469758667299, 64.33468911272517]}}, {"type": "Feature", "properties": {"norad_id": 38338, "name": "ARIRANG-3 (KOMPSAT-3)", "group": "resource", "lat": 3.961262987444535, "lon": -47.660625357170005, "alt_km": 688.7124499627444, "timestamp": "2025-12-24T05:51:19.262536+00:00", "meta": {"OBJECT_NAME": "ARIRANG-3 (KOMPSAT-3)", "OBJECT_ID": "2012-025B", "EPOCH": "2025-12-23T23:15:56.267136", "MEAN_MOTION": 14.61726676, "ECCENTRICITY": 0.00047438, "INCLINATION": 98.3339, "RA_OF_ASC_NODE": 312.6443, "ARG_OF_PERICENTER": 298.5588, "MEAN_ANOMALY": 61.5135, "EPHEMERIS_TYPE": 0, "CLASSIFICATION_TYPE": "U", "NORAD_CAT_ID": 38338, "ELEMENT_SET_NO": 999, "REV_AT_EPOCH": 72574, "BSTAR": 0.00012238732, "MEAN_MOTION_DOT": 5.61e-06, "MEAN_MOTION_DDOT": 0}, "tle": {"line1": "1 38338U 12025B   25357.96940124  .00000561  00000+0  12239-3 0  9993", "line2": "2 38338  98.3339 312.6443 0004743 298.5588  61.5135 14.61726676725740"}}, "geometry": {"type": "Point", "coordinates": [-47.660625357170005, 3.961262987444535]}}, {"type": "Feature", "properties": {"norad_id": 38709, "name": "EXACTVIEW-1 (ADS-1B)", "group": "resource", "lat": -76.62522090024221, "lon": 148.46795229028675, "alt_km": 810.4595492465805, "timestamp": "2025-12-24T05:51:19.262546+00:00", "meta": {"OBJECT_NAME": "EXACTVIEW-1 (ADS-1B)", "OBJECT_ID": "2012-039C", "EPOCH": "2025-12-23T21:48:12.513888", "MEAN_MOTION": 14.24912191, "ECCENTRICITY": 0.00101781, "INCLINATION": 98.9638, "RA_OF_ASC_NODE": 106.5329, "ARG_OF_PERICENTER": 320.7138, "MEAN_ANOMALY": 39.3301, "EPHEMERIS_TYPE": 0, "CLASSIFICATION_TYPE": "U", "NORAD_CAT_ID": 38709, "ELEMENT_SET_NO": 999, "REV_AT_EPOCH": 69774, "BSTAR": 7.813888e-05, "MEAN_MOTION_DOT": 1.36e-06, "MEAN_MOTION_DDOT": 0}, "tle": {"line1": "1 38709U 12039C   25357.90847817  .00000136  00000+0  78139-4 0  9999", "line2": "2 38709  98.9638 106.5329 0010178 320.7138  39.3301 14.24912191697745"}}, "geometry": {"type": "Point", "coordinates": [148.46795229028675, -76.62522090024221]}}, {"type": "Feature", "properties": {"norad_id": 38755, "name": "SPOT 6", "group": "resource", "lat": -76.73367230621855, "lon": -154.6476909632639, "alt_km": 706.1028749467405, "timestamp": "2025-12-24T05:51:19.262556+00:00", "meta": {"OBJECT_NAME": "SPOT 6", "OBJECT_ID": "2012-047A", "EPOCH": "2025-12-23T23:43:47.495424", "MEAN_MOTION": 14.58541297, "ECCENTRICITY": 0.00012573, "INCLINATION": 98.1557, "RA_OF_ASC_NODE": 62.5652, "ARG_OF_PERICENTER": 78.9064, "MEAN_ANOMALY": 281.2277, "EPHEMERIS_TYPE": 0, "CLASSIFICATION_TYPE": "U", "NORAD_CAT_ID": 38755, "ELEMENT_SET_NO": 999, "REV_AT_EPOCH": 70751, "BSTAR": 7.6566104e-05, "MEAN_MOTION_DOT": 3.11e-06, "MEAN_MOTION_DDOT": 0}, "tle": {"line1": "1 38755U 12047A   25357.98874416  .00000311  00000+0  76566-4 0  9999", "line2": "2 38755  98.1557  62.5652 0001257  78.9064 281.2277 14.58541297707515"}}, "geometry": {"type": "Point", "coordinates": [-154.6476909632639, -76.73367230621855]}}]}